IRIDIUM 150             
1 43257U 18030J   25031.58225914  .00000284  00000+0  94170-4 0  9998
2 43257  86.4009 140.1763 0002320  95.7836 264.3625 14.34220215358263
IRIDIUM 143             
1 43258U 18030K   25031.84230750  .00000531  00000+0  18251-3 0  9992
2 43258  86.4013 140.1406 0002594  96.3467 263.8024 14.34214479358232
IRIDIUM 161             
1 43478U 18047C   25031.28305281  .00000899  00000+0  26131-3 0  9997
2 43478  86.4495 298.2077 0002138  82.8502 277.2942 14.43281486352743
IRIDIUM 152             
1 43479U 18047D   25031.46618122  .00000568  00000+0  19593-3 0  9996
2 43479  86.3967 297.9913 0002066  85.5125 274.6307 14.34214749350576
IRIDIUM 147             
1 43480U 18047E   25031.75159460  .00000381  00000+0  12902-3 0  9995
2 43480  86.3970 297.8678 0001798  78.7576 281.3822 14.34221069350619
IRIDIUM 110             
1 43481U 18047F   25031.82770984  .00000528  00000+0  18152-3 0  9990
2 43481  86.3972 297.9146 0001718  90.3907 269.7485 14.34214692350612
IRIDIUM 162             
1 43482U 18047G   25031.97005618  .00000813  00000+0  23578-3 0  9997
2 43482  86.4495 297.8175 0002116  89.9516 270.1927 14.43268654352838
IRIDIUM 160             
1 43569U 18061A   25031.91308467  .00000516  00000+0  17711-3 0  9993
2 43569  86.3937 266.2332 0001854  85.7092 274.4316 14.34216710341529
